#aV2014 12 14  0  0  0.00000000     288 DD+AD WGS84 FIT  NGA
## 1823      0.00000000   300.00000000 57005 0.0000000000000
+   32     1  2  3  4  5  6  7  8  9 10 11 12 13 14 15 16 17
+         18 19 20 21 22 23 24 25 26 27 28 29 30 31 32  0  0
+          0  0  0  0  0  0  0  0  0  0  0  0  0  0  0  0  0
+          0  0  0  0  0  0  0  0  0  0  0  0  0  0  0  0  0
+          0  0  0  0  0  0  0  0  0  0  0  0  0  0  0  0  0
++         2  2  2  2  2  2  2  2  2  2  2  2  2  2  2  2  2
++         2  2  2  2  2  2  2  2  2  2  2  2  2  2  2  0  0
++         0  0  0  0  0  0  0  0  0  0  0  0  0  0  0  0  0
++         0  0  0  0  0  0  0  0  0  0  0  0  0  0  0  0  0
++         0  0  0  0  0  0  0  0  0  0  0  0  0  0  0  0  0
%c cc cc ccc ccc cccc cccc cccc cccc ccccc ccccc ccccc ccccc
%c cc cc ccc ccc cccc cccc cccc cccc ccccc ccccc ccccc ccccc
%f  0.0000000  0.000000000  0.00000000000  0.000000000000000
%f  0.0000000  0.000000000  0.00000000000  0.000000000000000
%i    0    0    0    0      0      0      0      0         0
%i    0    0    0    0      0      0      0      0         0
/*      NGA, ST. LOUIS,MO.                                  
/*   EPHEMERIS COMPUTED FROM  1 DAYS OF DATA                
/*   EPOCHA SMOOTHER                                       
/* CCCCCCCCCCCCCCCCCCCCCCCCCCCCCCCCCCCCCCCCCCCCCCCCCCCCCCCCC
*  2014 12 14 22 40  0.00000000
P  1 -15037.893404   2533.709984  21700.830068    -11.149779                    
V  1  -7598.175580 -26605.856588  -1994.391676      0.003507                    
P  2  13954.314920  20739.547282  -9326.710814    535.878648                    
V  2   1098.775373  12464.765991  27893.540374      0.022198                    
P  3 -21330.183986   9736.590600  12528.649950     75.144756                    
V  3   9247.531950 -13123.350419  25905.111569      0.300405                    
P  4 -16788.584435  -9429.779327  18092.070029     -4.320483                    
V  4  -5282.100831 -23055.859021 -16370.313157     -0.004213                    
P  5  13205.752975   8533.702341 -21472.442986   -306.012682                    
V  5 -18408.810478  19995.836125  -3206.024030      0.047643                    
P  6   5731.109644  25798.618569   2730.055594     27.312144                    
V  6  -3654.314461  -2540.696809  31503.781788      0.077286                    
P  7  -9438.340058  15416.099956 -19233.958273    422.244839                    
V  7  -7778.301048 -23510.209259 -15296.758999      0.035789                    
P  8 -14230.386071 -12668.792399 -18547.179832     16.742608                    
V  8  -3113.423773 -23507.554678  17631.310412      0.001237                    
P  9 -16438.489526   9503.700472 -18578.426631    -27.716817                    
V  9 -22611.334236  -6875.951590  16481.969944     -0.093214                    
P 10  -3005.134030  20555.586143 -16676.582750   -154.202214                    
V 10 -16092.034286  13240.551094  20090.550389     -0.016786                    
P 11 -19531.805845  -3430.804279  17214.377495   -543.601888                    
V 11 -11233.784322 -20364.594938 -16159.260118     -0.027851                    
P 12  20825.048748  -6439.705905  14948.967040    253.618305                    
V 12 -12675.859508  14438.583280  23961.142804      0.028535                    
P 13  14832.249993  16149.561814 -15059.280975    -69.612636                    
V 13 -18340.653937  -4719.845810 -23522.217800     -0.034902                    
P 14  -2160.415301 -16073.631480  21292.933701    106.355825                    
V 14  25348.722545   7557.507161   8227.189041     -0.036003                    
P 15  26281.109385   1769.637329   4462.898144   -220.356544                    
V 15   4993.692482   4329.867578 -30291.479723     -0.022525                    
P 16 -12172.845144  -8512.089988 -22101.701462   -173.164348                    
V 16  20325.062787 -18987.379565  -3538.565500      0.029911                    
P 17    615.335610  15652.862398  21755.717394   -143.901646                    
V 17 -25947.964401  -7111.076863   5703.648550     -0.023659                    
P 18  14819.154804 -21410.767689   4772.607305    365.155074                    
V 18   6762.648597  -1356.034935 -30345.203717      0.026398                    
P 19 -25353.378863  -8713.099015    -58.229088   -492.446199                    
V 19    588.701668  -2128.921315 -31618.810812     -0.016087                    
P 20 -20718.790400  12593.353110  10558.430319    267.374995                    
V 20   6104.638705 -12861.367162  26871.738528      0.040817                    
P 21   5158.770676 -20690.056178 -14909.420613   -400.253461                    
V 21   8955.817726  18540.423264 -22084.380491     -0.021006                    
P 22   4385.817630 -21523.418187  15029.889913    296.901964                    
V 22  14934.641324 -11924.666814 -21913.503991      0.038977                    
P 23 -24240.862661   2114.980068 -11008.387002    -74.491343                    
V 23 -13052.118978  -5731.660209  26895.006481     -0.027338                    
P 24  16009.231807   1049.300253  21166.956124    -40.075783                    
V 24   7435.026955  25880.004729  -6774.703893     -0.005889                    
P 25  19807.438686 -17130.079481   3866.565809      9.284426                    
V 25  -1717.241639   5283.729734  31713.086348     -0.020887                    
P 26  21968.505498  13341.765808  -7903.086668   -157.162056                    
V 26  -9183.075916  -1163.876119 -29759.733920     -0.131825                    
P 27 -21058.217131 -12432.175107 -10475.179066     37.085962                    
V 27  13417.135547    842.706088 -27925.459713      0.027337                    
P 28 -10095.090650  21067.189641  13147.926372    405.319426                    
V 28 -12548.383826   9525.536567 -26257.783101      0.026772                    
P 29  18840.969005  -6792.930930 -17395.684623    579.565630                    
V 29  20782.447353   7769.702492  19476.837846      0.023865                    
P 30  -2837.481697  23937.587446 -11097.279391    -84.867728                    
V 30  -5467.199832 -13263.856793 -27255.302880     -0.012141                    
P 31  -6415.474633 -25585.350374    427.767038    327.381301                    
V 31   2602.682437   -303.649042  32318.079398     -0.006904                    
P 32 -17638.731050  -3025.470147  19452.286838   -270.798186                    
V 32  17478.862034 -17830.896464  13622.992488      0.087975                    
EOF
